# From MPEC 2022-S20
C/1995 O1 (Hale-Bopp),e,89.4463,282.4026,130.4171,176.9328,0.0004188,0.99496613,0.0000,03/29.4885/1997,2000,g -2.0,4.0
# From NK 1615
P/1996 R2 (Lagerkvist),e,2.6009,40.0091,333.4326,3.774354,0.1344127,0.31459460,211.8898,06/09.0/2023,2000,g 11.5,4.0
# From MPC 75703
P/1998 VS24 (LINEAR),e,5.0263,159.0324,244.6827,4.524247,0.1024200,0.24343138,201.2003,06/09.0/2023,2000,g 13.0,2.0
# From NK 731
P/1999 RO28 (LONEOS),e,7.5641,137.8532,231.3295,3.426332,0.1554032,0.67250985,224.1850,06/09.0/2023,2000,g 20.0,2.0
# From MPC 75704
P/1999 XN120 (Catalina),e,5.0297,285.2955,161.6575,4.179033,0.1153693,0.21058042,252.9693,06/09.0/2023,2000,g 13.5,2.0
# From NK 744
P/2000 R2 (LINEAR),e,11.6843,160.2844,176.6000,3.468047,0.1526078,0.53119708,221.6032,06/09.0/2023,2000,g 18.0,4.0
# From MPC 43019
P/2001 H5 (NEAT),e,8.3669,328.6830,224.6788,6.095550,0.0654915,0.59824710,183.2316,06/09.0/2023,2000,g 12.0,4.0
# From MPC 75704
P/2001 Q6 (NEAT),e,56.9117,22.1841,42.9389,7.964156,0.0438525,0.82351318,348.4086,06/09.0/2023,2000,g 13.5,4.0
# From MPC 47727
P/2002 EJ57 (LINEAR),e,4.9796,330.2884,167.2684,6.460790,0.0600172,0.59266305,109.0806,06/09.0/2023,2000,g 12.5,4.0
# From MPC109588
P/2002 T6 (NEAT-LINEAR),e,10.8572,206.0434,219.3879,7.762067,0.0455762,0.56391197,341.5076,06/09.0/2023,2000,g 10.5,4.0
# From MPC 75007
C/2002 VQ94 (LINEAR),e,70.7079,35.1592,99.9168,184.5152,0.0003932,0.96318770,2.4917,06/09.0/2023,2000,g  9.5,2.0
# From MPC 50354
P/2003 F2 (NEAT),e,11.6184,358.9681,192.2792,6.501065,0.0594603,0.54131252,77.5942,06/09.0/2023,2000,g 16.5,2.0
# From MPC 50139
P/2003 QX29 (NEAT),e,11.3958,264.4974,37.7003,8.011437,0.0434649,0.47224107,325.6682,06/09.0/2023,2000,g  8.5,4.0
# From MPC105235
P/2003 T12 (SOHO),e,11.0217,174.5799,219.7664,2.585063,0.2371359,0.77023942,267.3397,06/09.0/2023,2000,g 17.0,4.0
# From MPC 54558
P/2004 DO29 (Spacewatch-LINEAR),e,14.5290,147.3797,40.4506,7.301405,0.0499568,0.44159276,341.9984,06/09.0/2023,2000,g 13.5,2.0
# From MPEC 2022-YN2
P/2004 FY140 (LINEAR),e,2.1619,327.2723,254.1859,4.969539,0.0889672,0.19167924,239.4321,06/09.0/2023,2000,g 12.5,2.0
# From MPC 53304
P/2004 R3 (LINEAR-NEAT),e,12.7846,305.2891,37.5657,4.758840,0.0949407,0.25503485,59.5793,06/09.0/2023,2000,g 14.5,4.0
# From MPC 55521
P/2004 V3 (Siding Spring),e,50.4444,356.1260,322.5289,7.126553,0.0518066,0.44573691,351.3313,06/09.0/2023,2000,g 11.5,4.0
# From MPC 75705
P/2004 V5 (LINEAR-Hill),e,19.3493,47.7696,87.4993,7.998334,0.0435717,0.44567298,293.5708,06/09.0/2023,2000,g  8.0,4.0
# From MPC 54164
P/2005 E1 (Tubbiolo),e,4.2622,335.5786,193.8414,7.055444,0.0525917,0.37598208,354.1637,06/09.0/2023,2000,g 10.0,4.0
# From MPC 79019
P/2005 J1 (McNaught),e,31.7329,268.8290,338.9041,3.572608,0.1459574,0.56895061,248.4970,06/09.0/2023,2000,g 16.5,4.0
# From MPC 74246
P/2005 L1 (McNaught),e,7.6898,137.7989,151.0927,4.007353,0.1228620,0.21592653,70.8900,06/09.0/2023,2000,g  9.5,4.0
# From MPC 75706
P/2005 S2 (Skiff),e,3.1357,161.2183,229.6112,7.999995,0.0435582,0.19880410,270.6804,06/09.0/2023,2000,g  7.5,4.0
# From MPC 75706
P/2005 SB216 (LONEOS),e,24.1191,1.1174,83.2135,7.150185,0.0515499,0.46504054,310.9785,06/09.0/2023,2000,g 12.0,2.0
# From MPC 73461
P/2005 T3 (Read),e,6.2248,27.6406,6.7339,7.588478,0.0471489,0.17554223,305.1848,06/09.0/2023,2000,g  9.0,4.0
# From MPC 73461
P/2005 T4 (SWAN),e,160.2763,25.9409,41.8718,9.356960,0.0344351,0.92996758,222.0320,06/09.0/2023,2000,g 15.0,4.0
# From MPC 75706
P/2005 T5 (Broughton),e,21.3829,57.0042,304.7419,7.275577,0.0502230,0.55257442,323.0134,06/09.0/2023,2000,g 11.0,4.0
# From MPC 75707
P/2006 HR30 (Siding Spring),e,31.8829,309.7869,117.4382,7.806648,0.0451863,0.84337989,271.9345,06/09.0/2023,2000,g 11.0,4.0
# From MPC 75707
P/2007 C2 (Catalina),e,8.6037,275.2532,180.1883,7.003174,0.0531816,0.47255951,305.8898,06/09.0/2023,2000,g 10.0,4.0
# From MPC 84315
C/2007 D1 (LINEAR),e,41.5025,171.2091,339.7358,1156,0.0000251,0.99241256,0.0000,06/07.9130/2007,2000,g  3.5,4.0
# From MPC 82314
P/2007 K2 (Gibbs),e,7.6275,188.6343,347.3085,7.282835,0.0501480,0.68357847,294.8657,06/09.0/2023,2000,g 14.0,4.0
# From MPC 60925
P/2007 Q2 (Gilmore),e,10.2021,172.1585,162.8817,5.659221,0.0732098,0.66980408,67.6598,06/09.0/2023,2000,g 16.0,4.0
# From MPC 73462
P/2007 S1 (Zhao),e,5.9611,141.3402,245.1862,3.817124,0.1321599,0.33858729,32.4167,06/09.0/2023,2000,g 13.0,4.0
# From MPC 61994
P/2007 T2 (Kowalski),e,9.7511,3.3731,359.6809,3.044774,0.1855117,0.78567367,330.0184,06/09.0/2023,2000,g 18.5,4.0
# From MPC 75709
P/2008 L2 (Hill),e,25.8697,218.0123,141.2556,6.035757,0.0664671,0.61397727,1.9266,06/09.0/2023,2000,g 12.5,4.0
# From MPC 64114
P/2008 O3 (Boattini),e,32.3465,47.5602,341.1989,8.213172,0.0418734,0.69652228,229.5143,06/09.0/2023,2000,g 13.0,4.0
# From MPC 75710
P/2008 Y3 (McNaught),e,38.7825,262.8815,238.0009,8.046456,0.0431814,0.44632918,228.4313,06/09.0/2023,2000,g  8.5,4.0
# From MPC 75710
P/2009 B1 (Boattini),e,22.2451,297.0698,128.9328,6.735662,0.0563811,0.63586384,296.9980,06/09.0/2023,2000,g 13.0,4.0
# From MPC 66466
C/2009 G1 (STEREO),e,108.3584,120.6380,175.5284,470.6960,0.0000965,0.99758143,0.0000,04/19.1853/2009,2000,g  9.0,4.0
# From MPC 75710
P/2009 O3 (Hill),e,16.2872,183.6862,154.5008,7.767023,0.0455326,0.68747749,233.2274,06/09.0/2023,2000,g 12.5,4.0
# From MPC 68902
P/2009 Q5 (McNaught),e,40.9742,160.2561,209.1535,7.427613,0.0486889,0.60993390,244.0252,06/09.0/2023,2000,g 10.0,4.0
# From MPC112389
P/2009 T2 (La Sagra),e,27.6134,215.9159,216.3300,7.716142,0.0459837,0.76686593,225.5646,06/09.0/2023,2000,g 14.0,4.0
# From MPC105235
P/2009 WX51 (Catalina),e,9.5960,31.5450,118.2719,3.082759,0.1820936,0.73928469,170.3354,06/09.0/2023,2000,g 19.0,2.0
# From MPC 74247
P/2009 Y2 (Kowalski),e,29.9728,262.0531,172.1509,6.548055,0.0588214,0.63706773,285.1822,06/09.0/2023,2000,g 13.0,4.0
# From MPC 75711
P/2010 A3 (Hill),e,14.8147,63.5992,42.3000,6.089965,0.0655816,0.73389594,317.9207,06/09.0/2023,2000,g 14.0,4.0
# From MPC 75008
P/2010 C1 (Scotti),e,9.1205,141.8317,3.2039,7.109395,0.0519942,0.26144011,259.0169,06/09.0/2023,2000,g  9.5,4.0
# From MPC 75008
P/2010 D2 (WISE),e,57.1082,319.8797,119.9096,6.722534,0.0565463,0.45155823,275.6731,06/09.0/2023,2000,g 16.0,4.0
# From MPC 75009
P/2010 E2 (Jarnac),e,15.3887,177.8223,8.2671,8.639828,0.0388103,0.71953929,187.3890,06/09.0/2023,2000,g 14.0,4.0
# From MPC 72851
P/2010 H2 (Vales),e,14.2806,64.1874,128.0408,3.831577,0.1314128,0.19699097,275.9265,06/09.0/2023,2000,g  6.0,4.0
# From MPC 70361
P/2010 H3 (SOHO),e,23.1119,77.1377,26.1020,3.036106,0.1863068,0.98543322,0.0000,02/07.8542/2021,2000,g 20.0,2.0
# From MPC 73463
P/2010 H4 (Scotti),e,2.3178,44.7273,179.1770,6.604451,0.0580696,0.26603129,276.2811,06/09.0/2023,2000,g 10.5,4.0
# From MPC 74637
P/2010 H5 (Scotti),e,14.0569,24.7925,174.5324,7.173669,0.0512970,0.15268010,248.2481,06/09.0/2023,2000,g 13.0,2.0
# From MPC 98558
P/2010 J3 (McMillan),e,13.2532,106.4922,157.5458,8.982906,0.0366082,0.72500948,171.1172,06/09.0/2023,2000,g 11.0,4.0
# From MPC 84315
P/2010 JC81 (WISE),e,38.8326,30.8724,12.4420,8.104654,0.0427172,0.77813413,189.0288,06/09.0/2023,2000,g  9.0,4.0
# From MPC xxxxx
P/2010 OE101 (WISE),e,18.4122,194.3758,174.8053,3.142474,0.1769280,0.57033725,108.2938,06/09.0/2023,2000,g 18.5,4.0
# From MPC 74248
P/2010 T2 (PANSTARRS),e,7.8967,58.4120,352.1727,5.602257,0.0743292,0.32625119,339.4393,06/09.0/2023,2000,g 11.5,4.0
# From MPEC 2023-B57
P/2010 TO20 (LINEAR-Grauer),e,2.4788,43.2762,267.6845,5.832606,0.0699697,0.05563381,13.3727,06/09.0/2023,2000,g  9.0,4.0
# From MPC 82316
P/2010 U1 (Boattini),e,8.2233,280.6721,86.3947,6.497881,0.0595040,0.24917213,289.4271,06/09.0/2023,2000,g  9.5,4.0
# From MPEC 2023-J95
C/2010 U3 (Boattini),e,55.5632,42.9892,88.0380,3148,0.0000056,0.99731918,0.0000,02/25.5940/2019,2000,g  1.0,4.0
# From MPC 79021
P/2010 UH55 (Spacewatch),e,8.0375,232.8912,225.1589,6.654105,0.0574208,0.56405339,255.4332,06/09.0/2023,2000,g 11.0,4.0
# From MPC 75009
P/2010 WK (LINEAR),e,11.4018,11.3283,41.0036,5.762017,0.0712594,0.69063030,330.9026,06/09.0/2023,2000,g 14.5,2.0
# From MPC 84021
P/2011 C2 (Gibbs),e,10.8881,12.1196,160.3270,7.412712,0.0488358,0.26943277,205.0156,06/09.0/2023,2000,g  9.0,4.0
# From MPC 79866
P/2011 FR143 (Lemmon),e,15.9756,190.9491,349.8470,6.866079,0.0547824,0.45108703,246.5641,06/09.0/2023,2000,g 14.0,2.0
# From MPC 82317
P/2011 JB15 (Spacewatch-Boattini),e,19.1434,153.6028,110.9806,7.370238,0.0492586,0.31534032,205.2144,06/09.0/2023,2000,g  9.0,4.0
# From MPEC 2023-J95
C/2011 KP36 (Spacewatch),e,18.9867,173.2691,180.9288,39.43064,0.0039806,0.87576354,10.2181,06/09.0/2023,2000,g  4.5,4.0
# From MPC 87913
P/2011 N1 (ASH),e,35.7827,77.5757,330.4256,6.242367,0.0631946,0.54529511,254.7485,06/09.0/2023,2000,g 11.5,4.0
# From MPC 75714
P/2011 NO1 (Elenin),e,15.2453,295.8251,263.7082,5.534722,0.0756938,0.77476602,343.2744,06/09.0/2023,2000,g 15.0,4.0
# From MPEC 2022-ED3
P/2011 P1 (McNaught),e,5.6596,4.2284,349.2016,7.458497,0.0483868,0.32753602,227.0126,06/09.0/2023,2000,g  9.0,4.0
# From MPEC 2022-HC2
P/2011 S1 (Gibbs),e,2.6885,218.8161,192.6079,8.584720,0.0391846,0.20169531,126.0620,06/09.0/2023,2000,g  8.0,4.0
# From MPC 79022
P/2011 UA134 (Spacewatch-PANSTARRS),e,10.4403,40.3929,32.4149,5.610155,0.0741723,0.62995844,314.0964,06/09.0/2023,2000,g 17.5,4.0
# From MPC 77406
P/2011 V1 (Boattini),e,7.3751,46.7740,269.3902,3.857927,0.1300688,0.54975937,222.5457,06/09.0/2023,2000,g 15.5,4.0
# From MPC 82718
P/2011 W1 (PANSTARRS),e,3.7184,161.7852,282.8317,4.668439,0.0977117,0.28832024,47.4676,06/09.0/2023,2000,g 11.5,4.0
# From MPC 79342
P/2011 Y2 (Boattini),e,6.3819,309.3079,131.9898,6.236481,0.0632841,0.71064834,260.2291,06/09.0/2023,2000,g 15.0,4.0
# From MPEC 2022-K19
P/2012 B1 (PANSTARRS),e,7.6104,36.2164,162.2813,6.532523,0.0590313,0.40922252,213.9954,06/09.0/2023,2000,g  9.0,4.0
# From MPC 78590
P/2012 C3 (PANSTARRS),e,9.0920,135.3677,344.9542,9.748681,0.0323806,0.63011148,359.9758,10/06.0/2011,2000,g 13.0,4.0
# From MPC 84931
